{
  "norad_id": 64897,
  "name": "SKYCRAFT-4A",
  "history": [
    {
      "epoch": "2026-04-11T18:14:15.690048Z",
      "apogee_km": 584.1980091913811,
      "perigee_km": 575.1904009133195,
      "latitude_deg": -2.599376448846517e-05,
      "longitude_deg": 53.95645446678689,
      "height_km": 585.1375080927886,
      "semi_major_axis_km": 6957.83120505235,
      "eccentricity": 0.0006473,
      "inclination_deg": 97.6749,
      "raan_deg": 167.4966,
      "arg_perigee_deg": 122.2491,
      "mean_anomaly_deg": 237.9358,
      "mean_motion_rev_day": 14.95863375
    },
    {
      "epoch": "2026-04-13T03:57:05.347008Z",
      "apogee_km": 584.1791223530645,
      "perigee_km": 575.1573537691847,
      "latitude_deg": 4.321409125835815e-05,
      "longitude_deg": -91.75823589965023,
      "height_km": 584.8846117812375,
      "semi_major_axis_km": 6957.805238061124,
      "eccentricity": 0.00064832,
      "inclination_deg": 97.6747,
      "raan_deg": 168.8734,
      "arg_perigee_deg": 118.8533,
      "mean_anomaly_deg": 241.334,
      "mean_motion_rev_day": 14.95871749
    },
    {
      "epoch": "2026-04-14T16:52:33.182112Z",
      "apogee_km": 584.1958970974329,
      "perigee_km": 575.0798204774501,
      "latitude_deg": 1.0631530082122455e-05,
      "longitude_deg": 74.36695925218305,
      "height_km": 584.6066361970419,
      "semi_major_axis_km": 6957.774858787441,
      "eccentricity": 0.0006551,
      "inclination_deg": 97.6742,
      "raan_deg": 170.381,
      "arg_perigee_deg": 115.0487,
      "mean_anomaly_deg": 245.1415,
      "mean_motion_rev_day": 14.95881546
    },
    {
      "epoch": "2026-04-15T18:33:44.208576Z",
      "apogee_km": 584.2161561902876,
      "perigee_km": 575.016614664075,
      "latitude_deg": -3.6215659085535964e-06,
      "longitude_deg": 49.06491674930853,
      "height_km": 584.4096029333115,
      "semi_major_axis_km": 6957.753385427181,
      "eccentricity": 0.0006611,
      "inclination_deg": 97.6741,
      "raan_deg": 171.4298,
      "arg_perigee_deg": 112.425,
      "mean_anomaly_deg": 247.7672,
      "mean_motion_rev_day": 14.95888471
    },
    {
      "epoch": "2026-04-16T10:36:58.404960Z",
      "apogee_km": 584.2306803689262,
      "perigee_km": 574.9727132589451,
      "latitude_deg": 3.821363207158905e-05,
      "longitude_deg": 168.25194880359516,
      "height_km": 584.2805410260761,
      "semi_major_axis_km": 6957.738696813935,
      "eccentricity": 0.0006653,
      "inclination_deg": 97.6739,
      "raan_deg": 172.0853,
      "arg_perigee_deg": 110.7578,
      "mean_anomaly_deg": 249.4357,
      "mean_motion_rev_day": 14.95893208
    },
    {
      "epoch": "2026-04-17T21:56:05.044128Z",
      "apogee_km": 584.2450264460904,
      "perigee_km": 574.8752348741727,
      "latitude_deg": 2.718807597823712e-05,
      "longitude_deg": -1.5339905079921454,
      "height_km": 583.9635299267011,
      "semi_major_axis_km": 6957.697130660131,
      "eccentricity": 0.00067334,
      "inclination_deg": 97.6737,
      "raan_deg": 173.5275,
      "arg_perigee_deg": 106.9485,
      "mean_anomaly_deg": 253.2475,
      "mean_motion_rev_day": 14.95906613
    },
    {
      "epoch": "2026-04-18T04:21:22.509792Z",
      "apogee_km": 584.2568884721513,
      "perigee_km": 574.8578782835339,
      "latitude_deg": 2.0392497133943865e-05,
      "longitude_deg": -97.85828548242168,
      "height_km": 583.9082116351885,
      "semi_major_axis_km": 6957.694383377842,
      "eccentricity": 0.00067544,
      "inclination_deg": 97.6737,
      "raan_deg": 173.7897,
      "arg_perigee_deg": 106.227,
      "mean_anomaly_deg": 253.9695,
      "mean_motion_rev_day": 14.95907499
    },
    {
      "epoch": "2026-04-19T20:29:25.537056Z",
      "apogee_km": 584.3021001479747,
      "perigee_km": 574.6977781171963,
      "latitude_deg": 4.580122948639766e-05,
      "longitude_deg": 20.119644464805944,
      "height_km": 583.524566283354,
      "semi_major_axis_km": 6957.636939132585,
      "eccentricity": 0.0006902,
      "inclination_deg": 97.6731,
      "raan_deg": 175.4285,
      "arg_perigee_deg": 101.8695,
      "mean_anomaly_deg": 258.3301,
      "mean_motion_rev_day": 14.95926025
    },
    {
      "epoch": "2026-04-20T10:56:19.030848Z",
      "apogee_km": 584.3368423984257,
      "perigee_km": 574.6379140152067,
      "latitude_deg": -4.575192103029134e-05,
      "longitude_deg": 163.39349854984516,
      "height_km": 583.3869374217898,
      "semi_major_axis_km": 6957.624378206816,
      "eccentricity": 0.000697,
      "inclination_deg": 97.6732,
      "raan_deg": 176.0186,
      "arg_perigee_deg": 100.2498,
      "mean_anomaly_deg": 259.9509,
      "mean_motion_rev_day": 14.95930076
    },
    {
      "epoch": "2026-04-21T15:50:05.063712Z",
      "apogee_km": 584.3334738338499,
      "perigee_km": 574.53721197504,
      "latitude_deg": 8.255551157220854e-05,
      "longitude_deg": 89.94515333642406,
      "height_km": 583.066650382053,
      "semi_major_axis_km": 6957.572342904445,
      "eccentricity": 0.000704,
      "inclination_deg": 97.6732,
      "raan_deg": 177.1988,
      "arg_perigee_deg": 96.9777,
      "mean_anomaly_deg": 263.2246,
      "mean_motion_rev_day": 14.95946858
    },
    {
      "epoch": "2026-04-22T17:31:11.841024Z",
      "apogee_km": 584.3048050717789,
      "perigee_km": 574.4946782660263,
      "latitude_deg": -1.8844826618748018e-05,
      "longitude_deg": 64.66107112366498,
      "height_km": 582.7830859017173,
      "semi_major_axis_km": 6957.536741668902,
      "eccentricity": 0.000705,
      "inclination_deg": 97.6734,
      "raan_deg": 178.2478,
      "arg_perigee_deg": 94.0591,
      "mean_anomaly_deg": 266.1436,
      "mean_motion_rev_day": 14.9595834
    },
    {
      "epoch": "2026-04-23T03:09:06.668352Z",
      "apogee_km": 584.2849440545615,
      "perigee_km": 574.4811025896979,
      "latitude_deg": 4.224912053835184e-05,
      "longitude_deg": -79.8196530847714,
      "height_km": 582.6743714171923,
      "semi_major_axis_km": 6957.520023322129,
      "eccentricity": 0.00070455,
      "inclination_deg": 97.6735,
      "raan_deg": 178.6411,
      "arg_perigee_deg": 92.9848,
      "mean_anomaly_deg": 267.218,
      "mean_motion_rev_day": 14.95963732
    },
    {
      "epoch": "2026-04-24T16:04:25.857408Z",
      "apogee_km": 584.1985328747969,
      "perigee_km": 574.45390988693,
      "latitude_deg": 5.280449168465205e-05,
      "longitude_deg": 86.34205641854889,
      "height_km": 582.2493854230523,
      "semi_major_axis_km": 6957.463221380863,
      "eccentricity": 0.0007003,
      "inclination_deg": 97.6739,
      "raan_deg": 180.1491,
      "arg_perigee_deg": 88.6716,
      "mean_anomaly_deg": 271.5308,
      "mean_motion_rev_day": 14.95982052
    },
    {
      "epoch": "2026-04-25T17:45:30.263040Z",
      "apogee_km": 584.1205852109688,
      "perigee_km": 574.4275201323862,
      "latitude_deg": 1.914215786969776e-05,
      "longitude_deg": 61.06777650966453,
      "height_km": 581.9228302851334,
      "semi_major_axis_km": 6957.411052671678,
      "eccentricity": 0.0006966,
      "inclination_deg": 97.6741,
      "raan_deg": 181.198,
      "arg_perigee_deg": 85.4147,
      "mean_anomaly_deg": 274.787,
      "mean_motion_rev_day": 14.95998878
    },
    {
      "epoch": "2026-04-26T17:50:14.618400Z",
      "apogee_km": 584.0126355618513,
      "perigee_km": 574.4329077450675,
      "latitude_deg": 5.0844540599186486e-05,
      "longitude_deg": 59.877569776875994,
      "height_km": 581.6466276967054,
      "semi_major_axis_km": 6957.35977165346,
      "eccentricity": 0.00068846,
      "inclination_deg": 97.6741,
      "raan_deg": 182.1815,
      "arg_perigee_deg": 82.6518,
      "mean_anomaly_deg": 277.5486,
      "mean_motion_rev_day": 14.96015418
    }
  ]
}